STARLINK-36139          
1 66966C 25288H   26115.81020833  .00082093  00000+0  29762-2 0  1157
2 66966  43.0034 117.1281 0001579 262.1723 194.9476 15.27507374    17
STARLINK-36136          
1 66967C 25288J   26115.82965278  .00014754  00000+0  53459-3 0  1150
2 66967  43.0013 117.1527 0001612 267.4320 240.2431 15.27558954    13
STARLINK-36152          
1 66968C 25288K   26115.80951389  .00005686  00000+0  20600-3 0  1153
2 66968  43.0005 117.5725 0001387 267.5409   1.9144 15.27569693    12
STARLINK-36149          
1 66969C 25288L   26115.81784722  .00011456  00000+0  41513-3 0  1158
2 66969  43.0009 117.6467 0001643 265.3030   0.5223 15.27557934    10
STARLINK-35703          
1 66970C 25288M   26115.82201389  .00012249  00000+0  44368-3 0  1156
2 66970  43.0042 117.0070 0001533 266.2848 277.1490 15.27571483    11
STARLINK-35678          
1 66971C 25288N   26115.80534722  .00006765  00000+0  24509-3 0  1156
2 66971  43.0014 117.3543 0001408 266.2486  79.3086 15.27568666    10
STARLINK-34846          
1 66972C 25288P   26115.80534722  .00008182  00000+0  29634-3 0  1156
2 66972  43.0025 117.2053 0001622 263.2587 145.9597 15.27575266    16
STARLINK-35778          
1 66973C 25288Q   26115.81576389  .00009316  00000+0  33750-3 0  1157
2 66973  43.0039 116.9780 0001408 264.9609 272.3687 15.27565760    13
STARLINK-35780          
1 66974C 25288R   26115.81715278  .00010147  00000+0  36763-3 0  1151
2 66974  43.0021 116.8819 0001461 265.2919 315.0565 15.27563616    12
STARLINK-35777          
1 66975C 25288S   26115.83798611  .00023933  00000+0  86667-3 0  1151
2 66975  43.0017 117.5984 0001330 273.7661  74.6341 15.27573327    12
STARLINK-35772          
1 66976C 25288T   26115.84215278  .00018188  00000+0  65886-3 0  1152
2 66976  43.0015 117.1780 0001573 261.7590 293.4582 15.27564143    12
STARLINK-35770          
1 66977C 25288U   26115.84562500  .00023015  00000+0  83373-3 0  1152
2 66977  42.9999 117.3530 0001496 266.1682 209.1768 15.27561481    14
STARLINK-35787          
1 66978C 25288V   26115.82131944  .00012614  00000+0  45717-3 0  1158
2 66978  43.0043 116.9972 0001475 266.2659 280.4658 15.27550401    14
STARLINK-36107          
1 66979C 25288W   26115.83034722  .00019540  00000+0  70801-3 0  1153
2 66979  43.0019 117.6179 0000786 268.2473  45.0727 15.27556635    12
STARLINK-36086          
1 66980C 25288X   26115.82062500  .00014422  00000+0  52251-3 0  1152
2 66980  43.0007 117.5444 0001489 265.3564  51.1198 15.27563078    14
STARLINK-36142          
1 66981C 25288Y   26115.84493056  .00019857  00000+0  71934-3 0  1155
2 66981  42.9999 117.2688 0001389 267.3830 239.5017 15.27563592    10
STARLINK-36113          
1 66982C 25288Z   26115.83173611  .00019449  00000+0  70458-3 0  1154
2 66982  43.0035 116.8462 0001417 263.6405  15.7864 15.27562342    14
STARLINK-36145          
1 66983C 25288AA  26115.79840278 -.00000844  00000+0 -30563-4 0  1155
2 66983  43.0002 117.5448 0001364 268.9812 334.6630 15.27574903    12
STARLINK-35591          
1 66984C 25288AB  26115.82409722  .00017430  00000+0  63165-3 0  1155
2 66984  43.0009 117.5375 0001621 267.4656  61.0817 15.27552959    10
STARLINK-36103          
1 66985C 25288AC  26115.83729167  .00023033  00000+0  83423-3 0  1150
2 66985  43.0008 117.4767 0001513 265.2757 128.8083 15.27567959    15
STARLINK-36135          
1 66986C 25288AD  26115.82548611  .00016400  00000+0  59399-3 0  1158
2 66986  43.0011 117.2875 0001474 266.6309 168.5932 15.27570141    13
STARLINK-36147          
1 66987C 25288AE  26115.83104167  .00015114  00000+0  54720-3 0  1158
2 66987  43.0013 117.1545 0001482 267.2824 240.9574 15.27584778    15
STARLINK-35660          
1 67003C 25293A   26115.83173611 -.00025232  00000+0 -21146-2 0  1153
2 67003  70.0024 335.7946 0003045 269.0944 113.8030 14.98342099    10
STARLINK-35913          
1 67004C 25293B   26115.84423611 -.00019232  00000+0 -16119-2 0  1150
2 67004  70.0022 335.5622 0002456 270.9800 359.4071 14.98338019    15
STARLINK-36148          
1 67005C 25293C   26115.82131944 -.00033707  00000+0 -28250-2 0  1156
2 67005  70.0023 335.7214 0002354 268.3129 148.4566 14.98346886    14
STARLINK-36156          
1 67006C 25293D   26115.85395833 -.00014255  00000+0 -11946-2 0  1150
2 67006  70.0021 335.6874 0002835 267.4660 280.2492 14.98337962    16
STARLINK-36123          
1 67007C 25293E   26115.79979167 -.00041531  00000+0 -34802-2 0  1155
2 67007  70.0022 335.5729 0002644 269.8280 210.9316 14.98354711    14
STARLINK-36163          
1 67008C 25293F   26115.80118056 -.00031739  00000+0 -26601-2 0  1157
2 67008  70.0020 335.7219 0002657 267.1640  86.0169 14.98344625    15
STARLINK-36118          
1 67009C 25293G   26115.85673611 -.00015157  00000+0 -12704-2 0  1151
2 67009  70.0021 335.4798 0002941 270.4963 112.3163 14.98333412    16
STARLINK-36189          
1 67010C 25293H   26115.83659722 -.00025417  00000+0 -21302-2 0  1152
2 67010  70.0023 335.4042 0002345 266.9911 119.7666 14.98341701    12
STARLINK-36167          
1 67011C 25293J   26115.81854167 -.00031351  00000+0 -26278-2 0  1152
2 67011  70.0023 335.4746 0002677 269.9113 356.9967 14.98339983    17
STARLINK-36175          
1 67012C 25293K   26115.82270833 -.00033287  00000+0 -27895-2 0  1152
2 67012  70.0022 335.7900 0002544 269.0882  87.6409 14.98349310    13
STARLINK-35856          
1 67013C 25293L   26115.83520833 -.00038040  00000+0 -31874-2 0  1156
2 67013  70.0021 335.7092 0002532 266.4263 202.7047 14.98356755    15
STARLINK-36207          
1 67014C 25293M   26115.81298611 -.00049607  00000+0 -41560-2 0  1155
2 67014  70.0021 335.7146 0002615 275.2195 119.0763 14.98368698    14
STARLINK-36093          
1 67015C 25293N   26115.78868056 -.00034219  00000+0 -28682-2 0  1151
2 67015  70.0024 335.6758 0002604 266.4923  86.7395 14.98342263    16
STARLINK-36120          
1 67016C 25293P   26115.84840278 -.00024792  00000+0 -20778-2 0  1158
2 67016  70.0022 335.5746 0002979 269.8942   0.4528 14.98340559    11
STARLINK-35498          
1 67017C 25293Q   26115.82618056 -.00031521  00000+0 -26416-2 0  1157
2 67017  70.0021 335.5302 0002409 270.8176 329.7362 14.98347300    12
STARLINK-36106          
1 67018C 25293R   26115.82270833 -.00033472  00000+0 -28052-2 0  1150
2 67018  70.0025 335.4886 0002734 269.6932 357.1495 14.98347092    10
STARLINK-35688          
1 67019C 25293S   26115.83312500 -.00033258  00000+0 -27870-2 0  1159
2 67019  70.0021 335.7891 0003040 267.5548 121.9540 14.98349707    10
STARLINK-36172          
1 67020C 25293T   26115.79423611 -.00034862  00000+0 -29217-2 0  1151
2 67020  70.0022 335.6865 0002131 273.9204  85.9486 14.98349336    19
STARLINK-36184          
1 67021C 25293U   26115.85395833 -.00026803  00000+0 -22464-2 0  1156
2 67021  70.0021 335.6361 0002382 269.6897 322.1953 14.98342959    17
STARLINK-36209          
1 67022C 25293V   26115.80326389 -.00042901  00000+0 -35950-2 0  1153
2 67022  70.0022 335.5627 0002281 270.3982 228.1974 14.98357056    17
STARLINK-36191          
1 67023C 25293W   26115.80256944 -.00037518  00000+0 -31441-2 0  1152
2 67023  70.0022 335.8160 0002615 268.2252   1.5216 14.98351404    13
STARLINK-36192          
1 67024C 25293X   26115.85534722 -.00105950  00000+0 -88744-2 0  1155
2 67024  70.0021 335.5812 0002311 269.5260  14.9319 14.98407544    19
STARLINK-36178          
1 67025C 25293Y   26115.80534722 -.00052834  00000+0 -44261-2 0  1159
2 67025  70.0020 335.6080 0002456 269.6838 195.1454 14.98372636    14
STARLINK-36176          
1 67026C 25293Z   26115.83173611 -.00038293  00000+0 -32091-2 0  1150
2 67026  70.0023 335.4144 0002435 270.5586  89.0991 14.98351544    17
STARLINK-36171          
1 67027C 25293AA  26115.84215278 -.00025635  00000+0 -21485-2 0  1159
2 67027  70.0023 335.4159 0002687 269.0420 124.2778 14.98341673    10
STARLINK-36132          
1 67028C 25293AB  26115.82826389 -.00032674  00000+0 -27383-2 0  1153
2 67028  70.0022 335.7244 0002729 268.6995 162.1169 14.98346845    18
STARLINK-36190          
1 67029C 25293AC  26115.84493056 -.00019131  00000+0 -16034-2 0  1151
2 67029  70.0022 335.7345 0002877 268.4725 207.1947 14.98336861    15
STARLINK-36138          
1 67030C 25294A   26115.83312500 -.00002631  00000+0 -95309-4 0  1158
2 67030  43.0009 131.9454 0001467 268.2365 247.1012 15.27578308    15
STARLINK-36150          
1 67031C 25294B   26115.84770833  .00008477  00000+0  30711-3 0  1154
2 67031  43.0043 131.3185 0001467 269.0040 193.0311 15.27567313    13
STARLINK-36131          
1 67032C 25294C   26115.85048611  .00008817  00000+0  31937-3 0  1157
2 67032  43.0017 131.4561 0001638 267.2155 146.4255 15.27570038    18
STARLINK-36137          
1 67033C 25294D   26115.79006944 -.00016576  00000+0 -60058-3 0  1153
2 67033  43.0032 131.7461 0001512 265.4726 196.7775 15.27575653    16
STARLINK-36140          
1 67034C 25294E   26115.81090278 -.00013321  00000+0 -48264-3 0  1150
2 67034  43.0028 132.2703 0001416 266.4884  41.6144 15.27573556    14
STARLINK-36085          
1 67035C 25294F   26115.83381944  .00001163  00000+0  42146-4 0  1159
2 67035  43.0036 132.1709 0001334 265.1657 154.9681 15.27568804    16
STARLINK-36125          
1 67036C 25294G   26115.82548611 -.00007165  00000+0 -25982-3 0  1153
2 67036  43.0003 131.8269 0001286 260.3768 276.6868 15.27542982    12
STARLINK-35732          
1 67037C 25294H   26115.84840278  .00005443  00000+0  19725-3 0  1153
2 67037  43.0025 131.9885 0001097 253.8891 288.8691 15.27562014    13
STARLINK-35775          
1 67038C 25294J   26115.82756944 -.00167790  00000+0 -60762-2 0  1150
2 67038  43.0013 131.6479 0001681 271.7054 347.5235 15.27668331    12
STARLINK-35705          
1 67039C 25294K   26115.79493056 -.00016434  00000+0 -59527-3 0  1155
2 67039  43.0012 131.8953 0001526 270.8970 140.2821 15.27584784    14
